1 41961U 17008P   21002.93033902  .00004195  00000-0  15007-3 0  9996
2 41961  97.3423  74.8302 0006107 309.6752  50.3949 15.29327240215958
1 41961U 17008P   21003.45378174  .00003899  00000-0  13967-3 0  9990
2 41961  97.3423  75.3469 0006081 307.3382  52.7304 15.29330839216032
1 41961U 17008P   21003.91179296  .00003978  00000-0  14240-3 0  9998
2 41961  97.3422  75.7990 0006059 305.3826  54.6848 15.29334686216106
1 41961U 17008P   21004.43523335  .00003587  00000-0  12865-3 0  9990
2 41961  97.3422  76.3157 0006025 303.0849  56.9812 15.29337738216186
1 41961U 17008P   21004.63152325  .00003707  00000-0  13286-3 0  9991
2 41961  97.3422  76.5094 0006012 302.2406  57.8251 15.29339471216211
1 41961U 17008P   21005.22039155  .00004035  00000-0  14436-3 0  9995
2 41961  97.3421  77.0908 0005980 299.7215  60.3430 15.29344469216302
1 41961U 17008P   21005.80925842  .00004358  00000-0  15569-3 0  9992
2 41961  97.3421  77.6721 0005957 297.1137  62.9495 15.29349193216397
1 41961U 17008P   21005.87468738  .00005032  00000-0  17936-3 0  9995
2 41961  97.3421  77.7367 0005959 296.8335  63.2296 15.29351582216402
1 41961U 17008P   21006.46355146  .00005225  00000-0  18608-3 0  9990
2 41961  97.3421  78.3180 0005931 294.1193  65.9426 15.29356939216499
1 41961U 17008P   21006.85612622  .00005357  00000-0  19069-3 0  9996
2 41961  97.3421  78.7056 0005929 292.3680  67.6932 15.29360777216556
1 41961U 17008P   21007.18327052  .00005826  00000-0  20714-3 0  9993
2 41961  97.3422  79.0286 0005928 290.8677  69.1929 15.29365441216606
1 41961U 17008P   21007.44498600  .00004918  00000-0  17526-3 0  9998
2 41961  97.3423  79.2870 0005921 289.7013  70.3588 15.29365791216649
1 41961U 17008P   21007.83755832  .00004661  00000-0  16622-3 0  9995
2 41961  97.3423  79.6746 0005904 287.9150  72.1446 15.29369090216704
1 41961U 17008P   21008.49184306  .00004332  00000-0  15468-3 0  9992
2 41961  97.3425  80.3206 0005903 285.0118  75.0468 15.29374959216805
1 41961U 17008P   21008.81898494  .00003993  00000-0  14277-3 0  9997
2 41961  97.3424  80.6436 0005893 283.5728  76.4855 15.29376990216857
1 41961U 17008P   21009.40783865  .00003703  00000-0  13257-3 0  9994
2 41961  97.3425  81.2250 0005892 280.9410  79.1167 15.29381265216944
1 41961U 17008P   21009.73497892  .00003779  00000-0  13522-3 0  9990
2 41961  97.3425  81.5480 0005890 279.4717  80.5857 15.29384056216991
1 41961U 17008P   21010.45468599  .00003711  00000-0  13282-3 0  9992
2 41961  97.3424  82.2586 0005903 276.1737  83.8831 15.29389000217102
1 41961U 17008P   21010.71639715  .00003728  00000-0  13342-3 0  9996
2 41961  97.3424  82.5169 0005906 274.9675  85.0891 15.29390950217142
1 41961U 17008P   21011.43610079  .00003720  00000-0  13309-3 0  9993
2 41961  97.3423  83.2275 0005907 271.7366  88.3198 15.29396183217252
1 41961U 17008P   21011.76323829  .00003571  00000-0  12788-3 0  9997
2 41961  97.3422  83.5505 0005912 270.3489  89.7074 15.29398109217301
1 41961U 17008P   21011.89409169  .00004423  00000-0  15774-3 0  9998
2 41961  97.3419  83.6795 0005924 269.8368  90.2194 15.29402478217328
1 41961U 17008P   21012.48293693  .00004734  00000-0  16862-3 0  9991
2 41961  97.3419  84.2609 0005909 267.0649  92.9915 15.29407107217418
1 41961U 17008P   21012.87549908  .00004303  00000-0  15347-3 0  9996
2 41961  97.3418  84.6485 0005918 265.3039  94.7525 15.29409305217472
1 41961U 17008P   21013.13720669  .00004158  00000-0  14840-3 0  9996
2 41961  97.3416  84.9069 0005926 264.1069  95.9496 15.29411220217514
1 41961U 17008P   21013.33348728  .00003780  00000-0  13513-3 0  9996
2 41961  97.3416  85.1006 0005931 263.1760  96.8805 15.29411935217541
1 41961U 17008P   21013.72604774  .00003451  00000-0  12359-3 0  9997
2 41961  97.3414  85.4881 0005943 261.3606  98.6961 15.29414520217608
1 41961U 17008P   21014.18403400  .00003169  00000-0  11370-3 0  9999
2 41961  97.3412  85.9402 0005962 259.3794 100.6775 15.29417556217672
1 41961U 17008P   21014.44574032  .00002729  00000-0  98270-4 0  9994
2 41961  97.3411  86.1985 0005967 258.1149 101.9423 15.29418297217718
1 41961U 17008P   21014.90372565  .00002629  00000-0  94751-4 0  9991
2 41961  97.3410  86.6506 0005977 256.0366 104.0209 15.29421075217781
1 41961U 17008P   21015.49256377  .00002402  00000-0  86811-4 0  9995
2 41961  97.3408  87.2318 0006006 253.4753 106.5828 15.29422983217874
1 41961U 17008P   21015.81969547  .00002214  00000-0  80227-4 0  9997
2 41961  97.3407  87.5547 0006018 252.0334 108.0251 15.29424151217925
1 41961U 17008P   21016.47395817  .00002077  00000-0  75407-4 0  9994
2 41961  97.3406  88.2005 0006045 249.1054 110.9540 15.29426735218022
1 41961U 17008P   21016.80108901  .00002124  00000-0  77057-4 0  9993
2 41961  97.3405  88.5234 0006053 247.6252 112.4347 15.29428322218071
1 41961U 17008P   21017.45534998  .00002258  00000-0  81717-4 0  9990
2 41961  97.3404  89.1692 0006077 244.6560 115.4051 15.29431385218179
1 41961U 17008P   21017.58620199  .00002281  00000-0  82527-4 0  9999
2 41961  97.3403  89.2983 0006083 244.0484 116.0130 15.29432048218192
1 41961U 17008P   21017.84790575  .00002485  00000-0  89676-4 0  9992
2 41961  97.3403  89.5567 0006096 242.9030 117.1589 15.29433797218238
1 41961U 17008P   21018.43673874  .00002552  00000-0  92037-4 0  9990
2 41961  97.3402  90.1379 0006131 240.2936 119.7695 15.29436567218326
1 41961U 17008P   21018.82929308  .00002842  00000-0  10217-3 0  9990
2 41961  97.3402  90.5254 0006156 238.5934 121.4705 15.29439453218382
1 41961U 17008P   21019.15642108  .00002276  00000-0  82328-4 0  9991
2 41961  97.3401  90.8483 0006186 237.2657 122.7988 15.29439653218434
1 41961U 17008P   21019.35269706  .00003234  00000-0  11588-3 0  9996
2 41961  97.3401  91.0421 0006196 236.4387 123.6262 15.29443938218460
1 41961U 17008P   21019.87609998  .00003313  00000-0  11865-3 0  9990
2 41961  97.3401  91.5588 0006225 234.2323 125.8339 15.29447730218540
1 41961U 17008P   21020.46492719  .00003639  00000-0  13002-3 0  9994
2 41961  97.3400  92.1399 0006267 231.5423 128.5255 15.29452346218639
1 41961U 17008P   21020.92290182  .00004153  00000-0  14800-3 0  9994
2 41961  97.3400  92.5921 0006304 229.7047 130.3643 15.29457498218700
1 41961U 17008P   21021.44630036  .00003846  00000-0  13725-3 0  9991
2 41961  97.3400  93.1087 0006349 227.4839 132.5865 15.29461261218784
1 41961U 17008P   21021.77342354  .00003889  00000-0  13872-3 0  9990
2 41961  97.3400  93.4316 0006366 226.0830 133.9885 15.29464384218839
1 41961U 17008P   21022.23139490  .00003942  00000-0  14055-3 0  9991
2 41961  97.3401  93.8838 0006396 224.1520 135.9210 15.29468695218902
1 41961U 17008P   21022.88563840  .00003777  00000-0  13476-3 0  9994
2 41961  97.3401  94.5296 0006438 221.4018 138.6735 15.29473445219000
1 41961U 17008P   21023.14733517  .00003693  00000-0  13182-3 0  9995
2 41961  97.3401  94.7880 0006462 220.3333 139.7429 15.29475366219046
1 41961U 17008P   21023.34360747  .00003855  00000-0  13749-3 0  9997
2 41961  97.3401  94.9817 0006480 219.5360 140.5409 15.29477254219077
1 41961U 17008P   21023.93242322  .00004012  00000-0  14296-3 0  9994
2 41961  97.3400  95.5630 0006529 217.2133 142.8656 15.29482110219169
1 41961U 17008P   21024.45581322  .00004333  00000-0  15416-3 0  9999
2 41961  97.3401  96.0796 0006582 215.1670 144.9137 15.29487174219242
1 41961U 17008P   21024.91377820  .00004142  00000-0  14747-3 0  9990
2 41961  97.3400  96.5318 0006615 213.4334 146.6490 15.29490692219319
1 41961U 17008P   21025.43716466  .00004889  00000-0  17354-3 0  9996
2 41961  97.3401  97.0485 0006662 211.3652 148.7192 15.29497502219390
1 41961U 17008P   21025.63343394  .00006273  00000-0  22186-3 0  9992
2 41961  97.3400  97.2422 0006672 210.5722 149.5130 15.29502804219429
1 41961U 17008P   21025.89512571  .00006406  00000-0  22646-3 0  9994
2 41961  97.3400  97.5006 0006686 209.5718 150.5145 15.29505996219465
1 41961U 17008P   21026.48392972  .00008883  00000-0  31283-3 0  9999
2 41961  97.3400  98.0819 0006737 207.2617 152.8271 15.29517779219550
1 41961U 17008P   21026.87646378  .00006794  00000-0  23990-3 0  9999
2 41961  97.3399  98.4694 0006784 205.7516 154.3388 15.29519620219615
1 41961U 17008P   21027.13815223  .00006905  00000-0  24375-3 0  9998
2 41961  97.3398  98.7277 0006814 204.8490 155.2423 15.29524191219652
1 41961U 17008P   21027.46526157  .00007212  00000-0  25441-3 0  9996
2 41961  97.3397  99.0506 0006840 203.5741 156.5187 15.29530064219707
1 41961U 17008P   21027.85779158  .00006782  00000-0  23938-3 0  9990
2 41961  97.3395  99.4380 0006874 202.1817 157.9127 15.29535653219769
1 41961U 17008P   21028.18489893  .00006314  00000-0  22300-3 0  9994
2 41961  97.3394  99.7609 0006907 200.9669 159.1290 15.29539953219811
1 41961U 17008P   21028.44658414  .00006649  00000-0  23468-3 0  9997
2 41961  97.3393 100.0191 0006931 199.9537 160.1434 15.29544002219857
1 41961U 17008P   21028.90453261  .00004529  00000-0  16069-3 0  9995
2 41961  97.3391 100.4711 0006971 198.1972 161.9020 15.29546105219929
1 41961U 17008P   21029.16621701  .00004543  00000-0  16118-3 0  9991
2 41961  97.3390 100.7294 0006996 197.2220 162.8784 15.29548457219963
1 41961U 17008P   21029.62416361  .00004629  00000-0  16414-3 0  9990
2 41961  97.3388 101.1814 0007038 195.4018 164.7010 15.29553239220033
1 41961U 17008P   21030.47463299  .00003657  00000-0  13022-3 0  9999
2 41961  97.3385 102.0209 0007124 192.3505 167.7562 15.29558545220165
1 41961U 17008P   21031.91388186  .00002906  00000-0  10398-3 0  9999
2 41961  97.3380 103.4414 0007267 187.3108 172.8028 15.29567337220381
1 41961U 17008P   21032.24098287  .00003049  00000-0  10897-3 0  9999
2 41961  97.3379 103.7642 0007299 186.2079 173.9072 15.29569802220431
1 41961U 17008P   21032.43724341  .00002887  00000-0  10331-3 0  9999
2 41961  97.3379 103.9579 0007324 185.4776 174.6386 15.29570478220466
1 41961U 17008P   21033.15686417  .00002803  00000-0  10037-3 0  9991
2 41961  97.3378 104.6682 0007383 182.9935 177.1262 15.29574150220576
